IRIDIUM 130             
1 43073U 17083D   24252.91749058  .00000090  00000+0  25172-4 0  9993
2 43073  86.3956 232.2620 0002150  89.7364 270.4079 14.34217382351483
IRIDIUM 151             
1 43074U 17083E   24252.96188906  .00000050  00000+0  10691-4 0  9994
2 43074  86.3950 232.0744 0002437  87.7000 272.4474 14.34217561351510
IRIDIUM 134             
1 43075U 17083F   24252.65110089  .00000094  00000+0  26440-4 0  9995
2 43075  86.3949 232.2032 0002097  91.6904 268.4532 14.34218095351434
IRIDIUM 137             
1 43076U 17083G   24252.94286223  .00001516  00000+0  53405-3 0  9992
2 43076  86.3955 232.1609 0002717  93.5500 266.6007 14.34217335351548
IRIDIUM 141             
1 43077U 17083H   24252.93651950 -.00000065  00000+0 -30297-4 0  9990
2 43077  86.3952 232.0316 0002119  83.1778 276.9659 14.34216637351549
IRIDIUM 153             
1 43078U 17083J   24252.88868193  .00001428  00000+0  50279-3 0  9997
2 43078  86.4019 200.5544 0002545  68.6064 291.5403 14.34223986352644
IRIDIUM 131             
1 43079U 17083K   24252.92383327  .00001544  00000+0  54415-3 0  9999
2 43079  86.3953 232.1794 0002505  89.7366 270.4116 14.34218789351476
